CAS-2T & KS-1Q          
1 41847U 16066G   20291.87072077  .00000078  00000-0  22679-4 0  9990
2 41847  98.6398 343.5334 0364848 223.9481 133.2157 14.38098924207016
NAYIF-1 (EO-88)         
1 42017U 17008BX  20291.65925418  .00001643  00000-0  65055-4 0  9993
2 42017  97.3481 357.3821 0004629 242.0698 118.0073 15.26844319204198
ZHUHAI-1 02 (CAS-4B)    
1 42759U 17034B   20291.80963269  .00000192  00000-0  25087-4 0  9997
2 42759  43.0181  74.7512 0009340  77.0903  32.2792 15.09909657184463
ZHUHAI-1 01 (CAS-4A)    
1 42761U 17034D   20291.81506671  .00000158  00000-0  22971-4 0  9992
2 42761  43.0184  73.9394 0009777  78.0796  38.7931 15.09988650184469
MAX VALIER SAT          
1 42778U 17036P   20291.89943157  .00000940  00000-0  43077-4 0  9993
2 42778  97.2912 342.0694 0010795 317.3132  42.7266 15.22832515184363
RADFXSAT (FOX-1B)       
1 43017U 17073E   20291.70951723  .00000977  00000-0  80777-4 0  9997
2 43017  97.7149 199.1861 0257025  12.2878 348.4444 14.79067934157237
FOX-1D (AO-92)          
1 43137U 18004AC  20291.78821346  .00001081  00000-0  47067-4 0  9992
2 43137  97.4351   2.0637 0008792 356.5691   3.5485 15.24358476153681
DIWATA-2B               
1 43678U 18084H   20291.89774156  .00000189  00000-0  24555-4 0  9993
2 43678  97.8973  50.3924 0011036 127.4730 232.7520 14.91659428107278
ES'HAIL 2               
1 43700U 18090A   20291.92896494  .00000136  00000-0  00000-0 0  9997
2 43700   0.0133 151.7049 0001794  75.5359 159.8868  1.00273410  6936
FOX-1CLIFF (AO-95)      
1 43770U 18099N   20291.85673656  .00000147  00000-0  18564-4 0  9998
2 43770  97.6950   1.0377 0015458 144.3488 215.8768 14.95062960102206
ITASAT 1                
1 43786U 18099AE  20291.75942279  .00000462  00000-0  46965-4 0  9990
2 43786  97.6970   1.4491 0016269 138.0836 222.1633 14.95395042102217
JY1SAT (JO-97)          
1 43803U 18099AX  20291.42443121  .00000580  00000-0  57341-4 0  9997
2 43803  97.6932   0.9115 0016225 139.3240 220.9196 14.95586588102168
PSAT2 (NO-104)          
1 44354U 19036R   20291.31252918  .00008987  00000-0  12646-3 0  9998
2 44354  28.5299 299.0373 0355585 174.4960 185.9683 15.05705993 72184
BRICSAT2 (NO-103)       
1 44355U 19036S   20291.66497404  .00019862  00000-0  26471-3 0  9993
2 44355  28.5303 280.3712 0326128 204.8493 153.6071 15.13182822 72419
JAISAT-1                
1 44419U 19038F   20291.85076929  .00001096  00000-0  65527-4 0  9998
2 44419  97.5538 252.1191 0023110  70.2647 290.1073 15.12979438 71105
DUCHIFAT-3              
1 44854U 19089C   20291.85040092  .00000324  00000-0  32551-4 0  9993
2 44854  36.9651  94.9669 0009831 330.4520  29.5658 14.99155918 46678
RS-44 & BREEZE-KM R/B   
1 44909U 19096E   20291.71379919  .00000004  00000-0 -19595-4 0  9999
2 44909  82.5173 274.0688 0216445 300.8481  57.1485 12.79708579 37820
ORBITAL FACTORY 2 (OF-2)
1 45113U 19071C   20291.86501990  .00001605  00000-0  59700-4 0  9991
2 45113  51.6415 132.0291 0013419 136.7795 223.4243 15.33820117 39915
HUSKYSAT-1              
1 45119U 19071J   20291.82734529  .00002023  00000-0  71879-4 0  9995
2 45119  51.6426 131.7778 0012707 133.3682 226.8360 15.34001631 39905
SALSAT                  
1 46495U 20068K   20291.71741813 -.00000047  00000-0  10888-5 0  9992
2 46495  97.6643 225.0259 0016566 169.8189 190.3371 15.03213231  2867
